NORAD_CAT_ID,OBJECT_NAME,OBJECT_TYPE,EPOCH,MEAN_MOTION,ECCENTRICITY,INCLINATION,RA_OF_ASC_NODE,ARG_OF_PERICENTER,MEAN_ANOMALY,BSTAR,MEAN_MOTION_DOT,MEAN_MOTION_DDOT,TLE_LINE0,TLE_LINE1,TLE_LINE2,SEMIMAJOR_AXIS,PERIOD,APOGEE,PERIGEE,DECAYED
52667.0,STARLINK-4076,PAYLOAD,2022-09-02 20:00:01,15.08870283,0.0002548,53.2193,157.5794,67.3748,151.8136,-0.0032982,-0.00052444,0.0,0 STARLINK-4076,1 52667U 22053M   22245.83334491 -.00052444  00000-0 -32982-2 0  9995,2 52667  53.2193 157.5794 0002548  67.3748 151.8136 15.08870283 17222,6917.788000000001,95.436,541.415,537.89,0.0
52667.0,STARLINK-4076,PAYLOAD,2022-09-02 22:00:01,15.088614000000002,0.0002566,53.2191,157.2057,65.4285,246.7282,-0.0033513,-0.00053265,0.0,0 STARLINK-4076,1 52667U 22053M   22245.91668981 -.00053265  00000-0 -33513-2 0  9991,2 52667  53.2191 157.2057 0002566  65.4285 246.7282 15.08861400  1303,6917.815,95.436,541.455,537.905,0.0
52667.0,STARLINK-4076,PAYLOAD,2022-09-03 14:00:01,15.08812909,0.0002485999999999,53.2186,154.2123,67.7726,267.5118,0.0028057,0.00044616,0.0,0 STARLINK-4076,1 52667U 22053M   22246.58334491  .00044616  00000-0  28057-2 0  9996,2 52667  53.2186 154.2123 0002486  67.7726 267.5118 15.08812909  1303,6917.9630000000025,95.439,541.548,538.1080000000002,0.0
52667.0,STARLINK-4076,PAYLOAD,2022-09-03 22:00:00,15.08862007,0.0002566999999999,53.2187,152.7171,67.1387,279.7324,-0.0013714,-0.00022062,0.0,0 STARLINK-4076,1 52667U 22053M   22246.91667824 -.00022062  00000-0 -13714-2 0  9999,2 52667  53.2187 152.7171 0002567  67.1387 279.7324 15.08862007  1305,6917.813,95.436,541.4540000000002,537.9019999999998,0.0
52667.0,STARLINK-4076,PAYLOAD,2022-09-04 12:00:00,15.08873141,0.0002474,53.2185,150.0978,68.0884,209.1145,-0.0015433,-0.00024789,0.0,0 STARLINK-4076,1 52667U 22053M   22247.50001157 -.00024789  00000-0 -15433-2 0  9994,2 52667  53.2185 150.0978 0002474  68.0884 209.1145 15.08873141 17472,6917.779,95.435,541.356,537.933,0.0
52667.0,STARLINK-4076,PAYLOAD,2022-09-04 14:00:01,15.08828948,0.0002349,53.2183,149.7234,68.2137,301.9445,0.001929,0.00030537,0.0,0 STARLINK-4076,1 52667U 22053M   22247.58335648  .00030537  00000-0  19290-2 0  9998,2 52667  53.2183 149.7234 0002349  68.2137 301.9445 15.08828948  1308,6917.9140000000025,95.438,541.404,538.154,0.0
52667.0,STARLINK-4076,PAYLOAD,2022-09-04 20:00:01,15.08859554,0.0002376999999999,53.2186,148.6018,68.365,220.4218,-0.0023206,-0.00037052,0.0,0 STARLINK-4076,1 52667U 22053M   22247.83334491 -.00037052  00000-0 -23206-2 0  9994,2 52667  53.2186 148.6018 0002377  68.3650 220.4218 15.08859554  1301,6917.821,95.436,541.33,538.0409999999998,0.0
52667.0,STARLINK-4076,PAYLOAD,2022-09-05 14:00:01,15.08844492,0.0002242,53.2185,145.2345,67.8138,337.0798,0.0010083,0.00015798,0.0,0 STARLINK-4076,1 52667U 22053M   22248.58334491  .00015798  00000-0  10083-2 0  9997,2 52667  53.2185 145.2345 0002242  67.8138 337.0798 15.08844492  1305,6917.8669999999975,95.437,541.283,538.181,0.0
52667.0,STARLINK-4076,PAYLOAD,2022-09-05 20:00:01,15.08868631,0.0002266,53.2189,144.113,66.9823,256.6074,-0.0041168,-0.00065268,0.0,0 STARLINK-4076,1 52667U 22053M   22248.83334491 -.00065268  00000-0 -41168-2 0  9992,2 52667  53.2189 144.1130 0002266  66.9823 256.6074 15.08868631 17677,6917.793000000002,95.436,541.225,538.09,0.0
52667.0,STARLINK-4076,PAYLOAD,2022-09-05 22:00:00,15.08860219,0.0002283,53.2188,143.7396,64.5699,351.9238,-0.0043128,-0.00068317,0.0,0 STARLINK-4076,1 52667U 22053M   22248.91667824 -.00068317  00000-0 -43128-2 0  9996,2 52667  53.2188 143.7396 0002283  64.5699 351.9238 15.08860219  1307,6917.819,95.436,541.263,538.104,0.0
52667.0,STARLINK-4076,PAYLOAD,2022-09-06 14:00:01,15.08803583,0.0002101,53.2192,140.7458,65.3857,14.2765,0.0011914999999999,0.00018707,0.0,0 STARLINK-4076,1 52667U 22053M   22249.58334491  .00018707  00000-0  11915-2 0  9996,2 52667  53.2192 140.7458 0002101  65.3857  14.2765 15.08803583  1307,6917.9919999999975,95.44,541.31,538.403,0.0
52667.0,STARLINK-4076,PAYLOAD,2022-09-06 22:00:00,15.088233,0.0002213,53.2187,139.251,62.7351,28.4853,-0.00099622,-0.00016101,0.0,0 STARLINK-4076,1 52667U 22053M   22249.91667824 -.00016101  00000-0 -99622-3 0  9992,2 52667  53.2187 139.2510 0002213  62.7351  28.4853 15.08823300  1301,6917.931,95.439,541.327,538.265,0.0
52667.0,STARLINK-4076,PAYLOAD,2022-09-07 14:00:01,15.08810722,0.0002133,53.2178,136.2572,66.2157,48.1538,0.0032817,0.00052287,0.0,0 STARLINK-4076,1 52667U 22053M   22250.58334491  .00052287  00000-0  32817-2 0  9993,2 52667  53.2178 136.2572 0002133  66.2157  48.1538 15.08810722 17940,6917.97,95.439,541.31,538.359,0.0
52667.0,STARLINK-4076,PAYLOAD,2022-09-07 22:00:00,15.08850027,0.0002271,53.218,134.7624,63.4009,62.5491,-0.00081136,-0.00013182,0.0,0 STARLINK-4076,1 52667U 22053M   22250.91667824 -.00013182  00000-0 -81136-3 0  9991,2 52667  53.2180 134.7624 0002271  63.4009  62.5491 15.08850027  1305,6917.85,95.437,541.286,538.144,0.0
52667.0,STARLINK-4076,PAYLOAD,2022-09-08 06:00:00,15.08868422,0.0002248,53.218,133.2662,60.8949,76.6513,-0.001873,-0.00029998,0.0,0 STARLINK-4076,1 52667U 22053M   22251.25001157 -.00029998  00000-0 -18730-2 0  9991,2 52667  53.2180 133.2662 0002248  60.8949  76.6513 15.08868422 18047,6917.794,95.436,541.214,538.1030000000002,0.0
52667.0,STARLINK-4076,PAYLOAD,2022-09-08 14:00:01,15.08821717,0.0002065,53.2182,131.7684,66.7813,82.3864,0.0023963,0.00038037,0.0,0 STARLINK-4076,1 52667U 22053M   22251.58334491  .00038037  00000-0  23963-2 0  9993,2 52667  53.2182 131.7684 0002065  66.7813  82.3864 15.08821717  1308,6917.936,95.439,541.23,538.373,0.0
52667.0,STARLINK-4076,PAYLOAD,2022-09-08 22:00:00,15.08850813,0.0002173,53.2182,130.2736,63.0253,97.7333,-0.00058041,-9.517e-05,0.0,0 STARLINK-4076,1 52667U 22053M   22251.91667824 -.00009517  00000-0 -58041-3 0  9998,2 52667  53.2182 130.2736 0002173  63.0253  97.7333 15.08850813  1308,6917.847,95.437,541.216,538.2090000000002,0.0
52667.0,STARLINK-4076,PAYLOAD,2022-09-09 06:00:00,15.08869496,0.0002109999999999,53.2179,128.7771,61.2504,111.1067,-0.0033188,-0.00052764,0.0,0 STARLINK-4076,1 52667U 22053M   22252.25001157 -.00052764  00000-0 -33188-2 0  9993,2 52667  53.2179 128.7771 0002110  61.2504 111.1067 15.08869496 18192,6917.79,95.436,541.115,538.196,0.0
52667.0,STARLINK-4076,PAYLOAD,2022-09-09 14:00:01,15.08821634,0.0001948,53.218,127.2795,67.5159,116.4566,0.0028941999999999,0.00046052,0.0,0 STARLINK-4076,1 52667U 22053M   22252.58334491  .00046052  00000-0  28942-2 0  9992,2 52667  53.2180 127.2795 0001948  67.5159 116.4566 15.08821634  1306,6917.937,95.439,541.149,538.4540000000002,0.0
52667.0,STARLINK-4076,PAYLOAD,2022-09-09 20:00:01,15.08860686,0.0002009999999999,53.218,126.1584,64.9704,37.6909,-0.001202,-0.00019378,0.0,0 STARLINK-4076,1 52667U 22053M   22252.83334491 -.00019378  00000-0 -12020-2 0  9993,2 52667  53.2180 126.1584 0002010  64.9704  37.6909 15.08860686 18288,6917.816999999999,95.436,541.073,538.2919999999998,0.0
52667.0,STARLINK-4076,PAYLOAD,2022-09-09 22:00:00,15.08852063,0.0002044999999999,53.2179,125.7848,63.2187,132.3482,-0.00025758,-4.387e-05,0.0,0 STARLINK-4076,1 52667U 22053M   22252.91667824 -.00004387  00000-0 -25758-3 0  9998,2 52667  53.2179 125.7848 0002045  63.2187 132.3482 15.08852063  1303,6917.844,95.437,541.123,538.294,0.0
52667.0,STARLINK-4076,PAYLOAD,2022-09-10 14:00:01,15.08819182,0.0001838,53.2174,122.7904,68.4396,150.3317,0.0025129,0.00039909,0.0,0 STARLINK-4076,1 52667U 22053M   22253.58334491  .00039909  00000-0  25129-2 0  9990,2 52667  53.2174 122.7904 0001838  68.4396 150.3317 15.08819182  1308,6917.944,95.439,541.081,538.538,0.0
52667.0,STARLINK-4076,PAYLOAD,2022-09-10 20:00:01,15.08857969,0.0001896,53.2173,121.6694,64.8101,72.6465,-0.0023833,-0.00038038,0.0,0 STARLINK-4076,1 52667U 22053M   22253.83334491 -.00038038  00000-0 -23833-2 0  9992,2 52667  53.2173 121.6694 0001896  64.8101  72.6465 15.08857969 18436,6917.825,95.436,541.002,538.379,0.0
52667.0,STARLINK-4076,PAYLOAD,2022-09-10 22:00:00,15.088533900000002,0.0001925,53.2171,121.2957,62.9825,167.3774,-0.0023593,-0.00037655,0.0,0 STARLINK-4076,1 52667U 22053M   22253.91667824 -.00037655  00000-0 -23593-2 0  9997,2 52667  53.2171 121.2957 0001925  62.9825 167.3774 15.08853390  1304,6917.839,95.437,541.036,538.373,0.0
52667.0,STARLINK-4076,PAYLOAD,2022-09-11 14:00:01,15.08835264,0.000177,53.2169,118.2953,68.4016,185.1362,-0.00064962,-0.00010611,0.0,0 STARLINK-4076,1 52667U 22053M   22254.58334491 -.00010611  00000-0 -64962-3 0  9991,2 52667  53.2169 118.2953 0001770  68.4016 185.1362 15.08835264 18549,6917.895,95.438,540.984,538.535,0.0
52667.0,STARLINK-4076,PAYLOAD,2022-09-11 22:00:00,15.08787009,0.0002003,53.2174,116.7966,59.9876,205.1484,0.0043173,0.00068995,0.0,0 STARLINK-4076,1 52667U 22053M   22254.91667824  .00068995  00000-0  43173-2 0  9993,2 52667  53.2174 116.7966 0002003  59.9876 205.1484 15.08787009  1308,6918.042,95.441,541.293,538.5219999999998,0.0
52667.0,STARLINK-4076,PAYLOAD,2022-09-12 04:00:00,15.08858949,0.0001821999999999,53.2161,115.6839,60.1031,123.7218,-0.0022485,-0.00035914,0.0,0 STARLINK-4076,1 52667U 22053M   22255.16667824 -.00035914  00000-0 -22485-2 0  9991,2 52667  53.2161 115.6839 0001822  60.1031 123.7218 15.08858949 18632,6917.821999999999,95.436,540.948,538.427,0.0
52667.0,STARLINK-4076,PAYLOAD,2022-09-12 14:00:01,15.08800573,0.0001742,53.2166,113.8046,69.9485,218.3624,0.0032335999999999,0.00051495,0.0,0 STARLINK-4076,1 52667U 22053M   22255.58334491  .00051495  00000-0  32336-2 0  9994,2 52667  53.2166 113.8046 0001742  69.9485 218.3624 15.08800573  1306,6918.001,95.44,541.071,538.661,0.0
52667.0,STARLINK-4076,PAYLOAD,2022-09-12 22:00:00,15.088368,0.0001968,53.2173,112.3062,63.4517,236.4309,1.7178e-05,-1.5e-07,0.0,0 STARLINK-4076,1 52667U 22053M   22255.91667824 -.00000015  00000-0  17178-4 0  9992,2 52667  53.2173 112.3062 0001968  63.4517 236.4309 15.08836800  1304,6917.89,95.438,541.117,538.394,0.0
